ONEWEB-0578             
1 56067U 23043X   26192.62827011  .00000002  00000+0 -26036-4 0  9996
2 56067  87.9241 239.1092 0002227  88.6576 271.4813 13.21825775161461
ONEWEB-0579             
1 56068U 23043Y   26192.61983732  .00000039  00000+0  61738-4 0  9996
2 56068  87.9267 239.1071 0002247 108.3296 251.8083 13.21826661161475
ONEWEB-0581             
1 56069U 23043Z   26192.62128395  .00000229  00000+0  56465-3 0  9995
2 56069  87.9076 223.9309 0001426  88.4120 271.7175 13.16595784162175
ONEWEB-0609             
1 56070U 23043AA  26192.90000984 -.00000067  00000+0 -21092-3 0  9991
2 56070  87.8984 254.2872 0002148  98.2411 261.8963 13.15547000159684
ONEWEB-0613             
1 56071U 23043AB  26192.66946500 -.00000079  00000+0 -24480-3 0  9995
2 56071  87.8984 254.3457 0002188 103.5199 256.6175 13.15547764159653
ONEWEB-0630             
1 56072U 23043AC  26192.66471005 -.00000094  00000+0 -28265-3 0  9991
2 56072  87.8987 254.3201 0002195 105.1001 255.0372 13.15549360159647
ONEWEB-0632             
1 56073U 23043AD  26192.65996275 -.00000122  00000+0 -35739-3 0  9998
2 56073  87.8987 254.3377 0001929  96.8053 263.3297 13.15547788159649
ONEWEB-0633             
1 56074U 23043AE  26192.72968100  .00000012  00000+0 -28793-5 0  9994
2 56074  87.8991 254.3015 0002254 103.9893 256.1488 13.15549139159631
ONEWEB-0634             
1 56075U 23043AF  26192.71542276  .00000061  00000+0  12919-3 0  9990
2 56075  87.8987 254.3429 0002364  88.4522 271.6879 13.15547638159621
ONEWEB-0635             
1 56076U 23043AG  26192.71066689  .00000006  00000+0 -19400-4 0  9993
2 56076  87.8999 254.3082 0001852  96.2876 263.8465 13.15547281159651
ONEWEB-0636             
1 56077U 23043AH  26192.62668052  .00000133  00000+0  32037-3 0  9996
2 56077  87.8995 254.3305 0001875  95.6178 264.5166 13.15547349159627
ONEWEB-0637             
1 56078U 23043AJ  26192.62034699  .00000149  00000+0  36131-3 0  9997
2 56078  87.8990 254.3465 0002040  90.2767 269.8597 13.15548018159642
ONEWEB-0647             
1 56079U 23043AK  26192.69165060  .00000114  00000+0  26846-3 0  9996
2 56079  87.8987 254.3448 0001973 101.7560 258.3791 13.15548825159648
ONEWEB-0651             
1 56080U 23043AL  26192.91507208  .00000166  00000+0  40590-3 0  9996
2 56080  87.8985 254.2937 0001875  93.1595 266.9749 13.15548094160876
ONEWEB-0718             
1 56081U 23043AM  26192.68214345  .00000071  00000+0  15570-3 0  9993
2 56081  87.8986 254.3208 0002581  94.3556 265.7869 13.15549282159659
ONEWEB-0561             
1 56710U 23068A   26192.74285990 -.00000061  00000+0 -18318-3 0  9994
2 56710  87.9188 269.5505 0001753 101.7017 258.4313 13.20769420152746
ONEWEB-0668             
1 56711U 23068B   26192.59595330  .00000084  00000+0  18510-3 0  9997
2 56711  87.9077 223.9244 0002365  83.3802 276.7598 13.16594292154990
ONEWEB-0676             
1 56712U 23068C   26192.60387551  .00000103  00000+0  23463-3 0  9999
2 56712  87.9080 223.9288 0001745  92.2394 267.8936 13.16593983154914
ONEWEB-0677             
1 56713U 23068D   26192.73109570 -.00000041  00000+0 -13244-3 0  9996
2 56713  87.9189 269.5444 0001913  89.6842 270.4510 13.20771475153040
ONEWEB-0678             
1 56714U 23068E   26192.95468373 -.00000048  00000+0 -16258-3 0  9995
2 56714  87.8997 254.2608 0001993 105.8541 254.2810 13.15548093152544
ONEWEB-0679             
1 56715U 23068F   26192.63870192  .00000019  00000+0  15010-4 0  9999
2 56715  87.9083 223.9129 0002080  78.0330 282.1034 13.16594191154943
ONEWEB-0680             
1 56716U 23068G   26192.62152486  .00000044  00000+0  75585-4 0  9999
2 56716  87.9243 239.1104 0002379  82.4741 277.6663 13.21825494154328
ONEWEB-0681             
1 56717U 23068H   26192.67787586  .00000052  00000+0  94334-4 0  9992
2 56717  87.9242 239.0994 0001051  83.0494 277.0760 13.21827396154327
ONEWEB-0682             
1 56718U 23068J   26192.67422543 -.00000083  00000+0 -25533-3 0  9992
2 56718  87.8990 254.3171 0002319  85.3466 274.7929 13.15547680152671
ONEWEB-0683             
1 56719U 23068K   26192.69798881  .00000232  00000+0  58179-3 0  9992
2 56719  87.8998 254.3123 0002170  94.1098 266.0280 13.15548804152641
ONEWEB-0684             
1 56720U 23068L   26192.62985393  .00000131  00000+0  31355-3 0  9998
2 56720  87.8993 254.3155 0002887 122.9867 237.1541 13.15549372152462
ONEWEB-0686             
1 56721U 23068M   26192.59912495  .00000036  00000+0  59907-4 0  9996
2 56721  87.9069 223.9422 0002443  94.4079 265.7331 13.16593401154923
ONEWEB-0694             
1 56722U 23068N   26192.60545644  .00000098  00000+0  22369-3 0  9996
2 56722  87.9090 223.9103 0002357  83.7600 276.3800 13.16593436154982
ONEWEB-0696             
1 56723U 23068P   26192.66312488 -.00000107  00000+0 -31857-3 0  9996
2 56723  87.8987 254.3456 0001937 111.5940 248.5397 13.15549548152586
ONEWEB-0703             
1 56724U 23068Q   26192.67263150 -.00000095  00000+0 -28595-3 0  9990
2 56724  87.8985 254.3247 0001642 121.5440 238.5851 13.15547359152472
