OBJECT_NAME,OBJECT_ID,EPOCH,MEAN_MOTION,ECCENTRICITY,INCLINATION,RA_OF_ASC_NODE,ARG_OF_PERICENTER,MEAN_ANOMALY,EPHEMERIS_TYPE,CLASSIFICATION_TYPE,NORAD_CAT_ID,ELEMENT_SET_NO,REV_AT_EPOCH,BSTAR,MEAN_MOTION_DOT,MEAN_MOTION_DDOT
ONEWEB-0578,2023-043X,2026-07-11T15:04:42.537504,13.21825775,.00022275,87.9241,239.1092,88.6576,271.4813,0,U,56067,999,16146,-.26035532E-4,.2E-7,0
ONEWEB-0579,2023-043Y,2026-07-11T14:52:33.944448,13.21826661,.00022476,87.9267,239.1071,108.3296,251.8083,0,U,56068,999,16147,.6173834E-4,.39E-6,0
ONEWEB-0581,2023-043Z,2026-07-11T14:54:38.933280,13.16595784,.00014269,87.9076,223.9309,88.4120,271.7175,0,U,56069,999,16217,.56465452E-3,.229E-5,0
ONEWEB-0609,2023-043AA,2026-07-11T21:36:00.850176,13.15547000,.00021486,87.8984,254.2872,98.2411,261.8963,0,U,56070,999,15968,-.2109236E-3,-.67E-6,0
ONEWEB-0613,2023-043AB,2026-07-11T16:04:01.776000,13.15547764,.00021884,87.8984,254.3457,103.5199,256.6175,0,U,56071,999,15965,-.24480032E-3,-.79E-6,0
ONEWEB-0630,2023-043AC,2026-07-11T15:57:10.948320,13.15549360,.00021952,87.8987,254.3201,105.1001,255.0372,0,U,56072,999,15964,-.28265023E-3,-.94E-6,0
ONEWEB-0632,2023-043AD,2026-07-11T15:50:20.781600,13.15547788,.00019292,87.8987,254.3377,96.8053,263.3297,0,U,56073,999,15964,-.35739251E-3,-.122E-5,0
ONEWEB-0633,2023-043AE,2026-07-11T17:30:44.438400,13.15549139,.00022547,87.8991,254.3015,103.9893,256.1488,0,U,56074,999,15963,-.287933E-5,.12E-6,0
ONEWEB-0634,2023-043AF,2026-07-11T17:10:12.526464,13.15547638,.00023643,87.8987,254.3429,88.4522,271.6879,0,U,56075,999,15962,.12919105E-3,.61E-6,0
ONEWEB-0635,2023-043AG,2026-07-11T17:03:21.619296,13.15547281,.00018527,87.8999,254.3082,96.2876,263.8465,0,U,56076,999,15965,-.19399752E-4,.6E-7,0
ONEWEB-0636,2023-043AH,2026-07-11T15:02:25.196928,13.15547349,.00018751,87.8995,254.3305,95.6178,264.5166,0,U,56077,999,15962,.32037399E-3,.133E-5,0
ONEWEB-0637,2023-043AJ,2026-07-11T14:53:17.979936,13.15548018,.00020403,87.8990,254.3465,90.2767,269.8597,0,U,56078,999,15964,.36130593E-3,.149E-5,0
ONEWEB-0647,2023-043AK,2026-07-11T16:35:58.611840,13.15548825,.00019739,87.8987,254.3448,101.7560,258.3791,0,U,56079,999,15964,.26846204E-3,.114E-5,0
ONEWEB-0651,2023-043AL,2026-07-11T21:57:42.227712,13.15548094,.00018751,87.8985,254.2937,93.1595,266.9749,0,U,56080,999,16087,.40590412E-3,.166E-5,0
ONEWEB-0718,2023-043AM,2026-07-11T16:22:17.194080,13.15549282,.00025815,87.8986,254.3208,94.3556,265.7869,0,U,56081,999,15965,.1557045E-3,.71E-6,0
ONEWEB-0561,2023-068A,2026-07-11T17:49:43.095360,13.20769420,.00017538,87.9188,269.5505,101.7017,258.4313,0,U,56710,999,15274,-.1831828E-3,-.61E-6,0
ONEWEB-0668,2023-068B,2026-07-11T14:18:10.365120,13.16594292,.00023656,87.9077,223.9244,83.3802,276.7598,0,U,56711,999,15499,.1851029E-3,.84E-6,0
ONEWEB-0676,2023-068C,2026-07-11T14:29:34.844064,13.16593983,.00017451,87.9080,223.9288,92.2394,267.8936,0,U,56712,999,15491,.23463211E-3,.103E-5,0
ONEWEB-0677,2023-068D,2026-07-11T17:32:46.668480,13.20771475,.00019131,87.9189,269.5444,89.6842,270.4510,0,U,56713,999,15304,-.13243703E-3,-.41E-6,0
ONEWEB-0678,2023-068E,2026-07-11T22:54:44.674272,13.15548093,.00019932,87.8997,254.2608,105.8541,254.2810,0,U,56714,999,15254,-.16257881E-3,-.48E-6,0
ONEWEB-0679,2023-068F,2026-07-11T15:19:43.845888,13.16594191,.00020808,87.9083,223.9129,78.0330,282.1034,0,U,56715,999,15494,.15010401E-4,.19E-6,0
ONEWEB-0680,2023-068G,2026-07-11T14:54:59.747904,13.21825494,.00023791,87.9243,239.1104,82.4741,277.6663,0,U,56716,999,15432,.75584969E-4,.44E-6,0
ONEWEB-0681,2023-068H,2026-07-11T16:16:08.474304,13.21827396,.00010518,87.9242,239.0994,83.0494,277.0760,0,U,56717,999,15432,.94333762E-4,.52E-6,0
ONEWEB-0682,2023-068J,2026-07-11T16:10:53.077152,13.15547680,.00023194,87.8990,254.3171,85.3466,274.7929,0,U,56718,999,15267,-.25532995E-3,-.83E-6,0
ONEWEB-0683,2023-068K,2026-07-11T16:45:06.233184,13.15548804,.00021705,87.8998,254.3123,94.1098,266.0280,0,U,56719,999,15264,.58178633E-3,.232E-5,0
ONEWEB-0684,2023-068L,2026-07-11T15:06:59.379552,13.15549372,.0002887,87.8993,254.3155,122.9867,237.1541,0,U,56720,999,15246,.31354896E-3,.131E-5,0
ONEWEB-0686,2023-068M,2026-07-11T14:22:44.395680,13.16593401,.00024437,87.9069,223.9422,94.4079,265.7331,0,U,56721,999,15492,.59906703E-4,.36E-6,0
ONEWEB-0694,2023-068N,2026-07-11T14:31:51.436416,13.16593436,.00023579,87.9090,223.9103,83.7600,276.3800,0,U,56722,999,15498,.22368891E-3,.98E-6,0
ONEWEB-0696,2023-068P,2026-07-11T15:54:53.989632,13.15549548,.00019371,87.8987,254.3456,111.5940,248.5397,0,U,56723,999,15258,-.31856811E-3,-.107E-5,0
ONEWEB-0703,2023-068Q,2026-07-11T16:08:35.361600,13.15547359,.00016428,87.8985,254.3247,121.5440,238.5851,0,U,56724,999,15247,-.2859455E-3,-.95E-6,0
